NORAD_CAT_ID,OBJECT_NAME,OBJECT_TYPE,EPOCH,MEAN_MOTION,ECCENTRICITY,INCLINATION,RA_OF_ASC_NODE,ARG_OF_PERICENTER,MEAN_ANOMALY,BSTAR,MEAN_MOTION_DOT,MEAN_MOTION_DDOT,TLE_LINE0,TLE_LINE1,TLE_LINE2,SEMIMAJOR_AXIS,PERIOD,APOGEE,PERIGEE,DECAYED
55763.0,STARLINK-5593,PAYLOAD,2023-12-24 13:25:49,14.9833198,0.0002864,70.0004,116.8389,264.8241,95.2592,3.6055e-05,3.37e-06,0.0,0 STARLINK-5593,1 55763U 23028Y   23358.55960418  .00000337  00000-0  36055-4 0  9996,2 55763  70.0004 116.8389 0002864 264.8241  95.2592 14.98331980 45290,6950.187,96.107,574.042,570.061,0.0
55763.0,STARLINK-5593,PAYLOAD,2023-12-24 18:14:13,14.98336597,0.0003015,70.0001,116.3348,266.0981,93.9833,7.3762e-05,7.87e-06,0.0,0 STARLINK-5593,1 55763U 23028Y   23358.75987977  .00000787  00000-0  73762-4 0  9992,2 55763  70.0001 116.3348 0003015 266.0981  93.9833 14.98336597 45327,6950.172,96.107,574.133,569.942,0.0
55763.0,STARLINK-5593,PAYLOAD,2023-12-25 11:51:43,14.98328531,0.0003212,70.0001,114.482,276.8446,83.2347,-4.2513e-05,-6e-06,0.0,0 STARLINK-5593,1 55763U 23028Y   23359.49424838 -.00000600  00000-0 -42513-4 0  9992,2 55763  70.0001 114.4820 0003212 276.8446  83.2347 14.98328531 45438,6950.197,96.107,574.295,569.83,0.0
55763.0,STARLINK-5593,PAYLOAD,2023-12-25 13:27:51,14.98329004,0.0003238,69.9997,114.3133,273.647,86.4318,-4.088e-05,-5.81e-06,0.0,0 STARLINK-5593,1 55763U 23028Y   23359.56100747 -.00000581  00000-0 -40880-4 0  9993,2 55763  69.9997 114.3133 0003238 273.6470  86.4318 14.98329004 45445,6950.196,96.107,574.311,569.81,0.0
55763.0,STARLINK-5593,PAYLOAD,2023-12-25 18:16:14,14.98333575,0.0003191,69.9996,113.8079,274.4764,85.603,1.2766e-05,5.9e-07,0.0,0 STARLINK-5593,1 55763U 23028Y   23359.76128291  .00000059  00000-0  12766-4 0  9999,2 55763  69.9996 113.8079 0003191 274.4764  85.6030 14.98333575 45473,6950.182,96.107,574.265,569.829,0.0
55763.0,STARLINK-5593,PAYLOAD,2023-12-26 11:53:44,14.98325233,0.0002692,70.0005,111.958,256.1761,103.9098,-2.0614e-05,-3.39e-06,0.0,0 STARLINK-5593,1 55763U 23028Y   23360.49564952 -.00000339  00000-0 -20614-4 0  9993,2 55763  70.0005 111.9580 0002692 256.1761 103.9098 14.98325233 45584,6950.208,96.107,573.944,570.202,0.0
55763.0,STARLINK-5593,PAYLOAD,2023-12-26 16:42:08,14.98325976,0.0002707,70.0006,111.4529,258.7899,101.2956,-2.6132e-06,-1.24e-06,0.0,0 STARLINK-5593,1 55763U 23028Y   23360.69592915 -.00000124  00000-0 -26132-5 0  9999,2 55763  70.0006 111.4529 0002707 258.7899 101.2956 14.98325976 45612,6950.205,96.107,573.952,570.189,0.0
55763.0,STARLINK-5593,PAYLOAD,2023-12-27 11:55:44,14.98328574,0.0003041,69.9998,109.4321,268.711,91.37,3.1085e-05,2.78e-06,0.0,0 STARLINK-5593,1 55763U 23028Y   23361.49704645  .00000278  00000-0  31085-4 0  9993,2 55763  69.9998 109.4321 0003041 268.7110  91.3700 14.98328574 45731,6950.197,96.107,574.176,569.949,0.0
55763.0,STARLINK-5593,PAYLOAD,2023-12-27 13:31:52,14.98328956,0.0003083,69.9996,109.2635,268.8116,91.269,3.1099e-05,2.78e-06,0.0,0 STARLINK-5593,1 55763U 23028Y   23361.56380631  .00000278  00000-0  31099-4 0  9991,2 55763  69.9996 109.2635 0003083 268.8116  91.2690 14.98328956 45740,6950.196,96.107,574.204,569.918,0.0
55763.0,STARLINK-5593,PAYLOAD,2023-12-27 16:44:08,14.98331476,0.0002989,69.9999,108.9273,267.812,92.2697,6.6109e-05,6.96e-06,0.0,0 STARLINK-5593,1 55763U 23028Y   23361.69732364  .00000696  00000-0  66109-4 0  9993,2 55763  69.9999 108.9273 0002989 267.8120  92.2697 14.98331476 45766,6950.188,96.107,574.131,569.976,0.0
55763.0,STARLINK-5593,PAYLOAD,2023-12-28 11:57:45,14.98327181,0.0002944,69.9999,106.9077,266.7473,93.3349,2.5797e-05,2.15e-06,0.0,0 STARLINK-5593,1 55763U 23028Y   23362.49844777  .00000215  00000-0  25797-4 0  9999,2 55763  69.9999 106.9077 0002944 266.7473  93.3349 14.98327181 45883,6950.202,96.107,574.113,570.02,0.0
55763.0,STARLINK-5593,PAYLOAD,2023-12-28 13:33:53,14.98327902,0.0003099,69.9993,106.7381,268.2388,91.8416,3.3494e-05,3.07e-06,0.0,0 STARLINK-5593,1 55763U 23028Y   23362.56520723  .00000307  00000-0  33494-4 0  9994,2 55763  69.9993 106.7381 0003099 268.2388  91.8416 14.98327902 45897,6950.199,96.107,574.218,569.911,0.0
55763.0,STARLINK-5593,PAYLOAD,2023-12-28 16:46:09,14.98329514,0.0002955,69.9997,106.402,266.7688,93.3133,4.6847e-05,4.66e-06,0.0,0 STARLINK-5593,1 55763U 23028Y   23362.69872603  .00000466  00000-0  46847-4 0  9997,2 55763  69.9997 106.4020 0002955 266.7688  93.3133 14.98329514 45911,6950.194,96.107,574.113,570.006,0.0
55763.0,STARLINK-5593,PAYLOAD,2023-12-29 11:59:46,14.9832787,0.0002873,70.0005,104.3833,266.093,93.99,-3.023e-06,-1.29e-06,0.0,0 STARLINK-5593,1 55763U 23028Y   23363.49984891 -.00000129  00000-0 -30230-5 0  9997,2 55763  70.0005 104.3833 0002873 266.0930  93.9900 14.98327870 46030,6950.199,96.107,574.061,570.068,0.0
55763.0,STARLINK-5593,PAYLOAD,2023-12-29 13:35:55,14.98327539,0.0002857,70.0,104.214,263.3489,96.7345,3.0207e-07,-8.9e-07,0.0,0 STARLINK-5593,1 55763U 23028Y   23363.56660880 -.00000089  00000-0  30207-6 0  9993,2 55763  70.0000 104.2140 0002857 263.3489  96.7345 14.98327539 46043,6950.201,96.107,574.051,570.08,0.0
55763.0,STARLINK-5593,PAYLOAD,2023-12-29 16:48:10,14.98345616,0.0002678,70.0005,103.8782,261.4869,98.5987,-0.00023946,-2.95e-05,0.0,0 STARLINK-5593,1 55763U 23028Y   23363.70012270 -.00002950  00000-0 -23946-3 0  9992,2 55763  70.0005 103.8782 0002678 261.4869  98.5987 14.98345616 46067,6950.145,96.106,573.871,570.148,0.0
55763.0,STARLINK-5593,PAYLOAD,2023-12-30 10:25:39,14.98329,0.0002937,70.0,102.0252,268.2497,91.8326,7.052e-05,7.49e-06,0.0,0 STARLINK-5593,1 55763U 23028Y   23364.43448498  .00000749  00000-0  70520-4 0  9991,2 55763  70.0000 102.0252 0002937 268.2497  91.8326 14.98329000 46179,6950.196,96.107,574.102,570.02,0.0
55763.0,STARLINK-5593,PAYLOAD,2023-12-30 13:37:55,14.98329586,0.0002928,70.0,101.6885,267.409,92.6734,7.0161e-05,7.44e-06,0.0,0 STARLINK-5593,1 55763U 23028Y   23364.56800459  .00000744  00000-0  70161-4 0  9990,2 55763  70.0000 101.6885 0002928 267.4090  92.6734 14.98329586 46199,6950.194,96.107,574.094,570.024,0.0
55763.0,STARLINK-5593,PAYLOAD,2023-12-30 16:50:11,14.98331513,0.0002877,70.0001,101.3521,267.4147,92.6682,9.511e-05,1.042e-05,0.0,0 STARLINK-5593,1 55763U 23028Y   23364.70152262  .00001042  00000-0  95110-4 0  9991,2 55763  70.0001 101.3521 0002877 267.4147  92.6682 14.98331513 46218,6950.188,96.107,574.053,570.054,0.0
55763.0,STARLINK-5593,PAYLOAD,2023-12-31 10:27:40,14.98326623,0.0002727,70.0003,99.5012,263.1648,96.92,-1.3328e-05,-2.52e-06,0.0,0 STARLINK-5593,1 55763U 23028Y   23365.43588784 -.00000252  00000-0 -13328-4 0  9999,2 55763  70.0003  99.5012 0002727 263.1648  96.9200 14.98326623 46327,6950.203,96.107,573.964,570.173,0.0
55763.0,STARLINK-5593,PAYLOAD,2023-12-31 16:52:13,14.9832603,0.0002743,70.0002,98.8278,265.0472,95.0374,-1.994e-05,-3.31e-06,0.0,0 STARLINK-5593,1 55763U 23028Y   23365.70292892 -.00000331  00000-0 -19940-4 0  9995,2 55763  70.0002  98.8278 0002743 265.0472  95.0374 14.98326030 46364,6950.205,96.107,573.977,570.164,0.0
55763.0,STARLINK-5593,PAYLOAD,2024-01-01 12:05:49,14.98331875,0.0002833,69.9999,96.8074,266.4259,93.6576,1.3046e-06,-7.7e-07,0.0,0 STARLINK-5593,1 55763U 23028Y   24001.50404369 -.00000077  00000-0  13046-5 0  9993,2 55763  69.9999  96.8074 0002833 266.4259  93.6576 14.98331875 46480,6950.187,96.107,574.021,570.083,0.0
55763.0,STARLINK-5593,PAYLOAD,2024-01-01 13:41:57,14.98332829,0.0002806,69.9999,96.639,265.8307,94.2531,1.2709e-05,5.9e-07,0.0,0 STARLINK-5593,1 55763U 23028Y   24001.57080259  .00000059  00000-0  12709-4 0  9991,2 55763  69.9999  96.6390 0002806 265.8307  94.2531 14.98332829 46495,6950.184,96.107,573.999,570.099,0.0
55763.0,STARLINK-5593,PAYLOAD,2024-01-01 16:54:13,14.98333114,0.0002812,69.9995,96.3022,267.1763,92.9074,6.1653e-05,6.43e-06,0.0,0 STARLINK-5593,1 55763U 23028Y   24001.70432095  .00000643  00000-0  61653-4 0  9996,2 55763  69.9995  96.3022 0002812 267.1763  92.9074 14.98333114 46516,6950.183,96.107,574.003,570.094,0.0
55763.0,STARLINK-5593,PAYLOAD,2024-01-02 12:07:50,14.98329355,0.000279,70.0,94.2829,259.4213,100.6632,6.0136e-05,6.25e-06,0.0,0 STARLINK-5593,1 55763U 23028Y   24002.50544232  .00000625  00000-0  60136-4 0  9997,2 55763  70.0000  94.2829 0002790 259.4213 100.6632 14.98329355 46639,6950.195,96.107,573.999,570.121,0.0
55763.0,STARLINK-5593,PAYLOAD,2024-01-02 13:43:58,14.98329585,0.00028,70.0,94.1144,262.6563,97.4278,6.1029e-05,6.35e-06,0.0,0 STARLINK-5593,1 55763U 23028Y   24002.57220157  .00000635  00000-0  61029-4 0  9994,2 55763  70.0000  94.1144 0002800 262.6563  97.4278 14.98329585 46649,6950.194,96.107,574.005,570.113,0.0
55763.0,STARLINK-5593,PAYLOAD,2024-01-02 15:20:06,14.98330387,0.0002794,70.0,93.9462,262.6893,97.3948,6.8594e-05,7.26e-06,0.0,0 STARLINK-5593,1 55763U 23028Y   24002.63896082  .00000726  00000-0  68594-4 0  9992,2 55763  70.0000  93.9462 0002794 262.6893  97.3948 14.98330387 46653,6950.192,96.107,573.999,570.115,0.0
55763.0,STARLINK-5593,PAYLOAD,2024-01-03 12:09:51,14.98325228,0.0002654,70.0005,91.7589,261.4268,98.6591,-3.3165e-05,-4.89e-06,0.0,0 STARLINK-5593,1 55763U 23028Y   24003.50684732 -.00000489  00000-0 -33165-4 0  9990,2 55763  70.0005  91.7589 0002654 261.4268  98.6591 14.98325228 46782,6950.208,96.107,573.917,570.228,0.0
55763.0,STARLINK-5593,PAYLOAD,2024-01-03 13:45:59,14.98324889,0.0002849,70.0002,91.5904,266.3571,93.7262,-5.5528e-05,-7.55e-06,0.0,0 STARLINK-5593,1 55763U 23028Y   24003.57360832 -.00000755  00000-0 -55528-4 0  9992,2 55763  70.0002  91.5904 0002849 266.3571  93.7262 14.98324889 46799,6950.209,96.107,574.054,570.094,0.0
55763.0,STARLINK-5593,PAYLOAD,2024-01-03 15:22:07,14.98325082,0.0002816,70.0003,91.422,265.6372,94.4466,-5.4073e-05,-7.38e-06,0.0,0 STARLINK-5593,1 55763U 23028Y   24003.64036832 -.00000738  00000-0 -54073-4 0  9995,2 55763  70.0003  91.4220 0002816 265.6372  94.4466 14.98325082 46807,6950.208,96.107,574.03,570.116,0.0
